TEMPEST-D               
1 43547U 98067NV  20125.53054856  .00004537  00000-0  56894-4 0  9994
2 43547  51.6361 173.5395 0004324 254.8941 105.1574 15.62002021102652
RAINCUBE                
1 43548U 98067NW  20125.56237480  .00022387  00000-0  17019-3 0  9992
2 43548  51.6319 154.8599 0003770 311.9607  48.1069 15.72207721103350
HALOSAT                 
1 43549U 98067NX  20125.79916624  .00014055  00000-0  11106-3 0  9996
2 43549  51.6349 154.2569 0003259 317.1657  42.9087 15.71684014102949
ENDUROSAT ONE           
1 43551U 98067NZ  20125.52437332  .00040995  00000-0  24072-3 0  9992
2 43551  51.6334 146.3255 0004167 336.0912  23.9895 15.77830009103437
EQUISAT                 
1 43552U 98067PA  20125.52910401  .00022060  00000-0  16721-3 0  9991
2 43552  51.6342 153.9926 0004439 315.1981  44.8659 15.72284951103290
AEROCUBE 12A            
1 43556U 18046C   20125.53648712  .00002096  00000-0  84164-4 0  9992
2 43556  51.6426 316.5581 0008746 136.0468 224.1210 15.29687270100652
AEROCUBE 12B            
1 43557U 18046D   20125.52401370  .00001338  00000-0  58662-4 0  9991
2 43557  51.6429 317.2144 0008748 135.5375 224.6308 15.29422056100597
UITMSAT-1               
1 43589U 98067PD  20125.49553048  .00030033  00000-0  20587-3 0  9991
2 43589  51.6304 152.8463 0004588 332.9443  27.1317 15.74451645 99047
MAYA-1                  
1 43590U 98067PE  20125.36146165  .00034770  00000-0  23748-3 0  9991
2 43590  51.6300 153.4605 0004689 331.4813  28.5929 15.74455689 98952
BHUTAN-1                
1 43591U 98067PF  20125.46471423  .00033923  00000-0  23064-3 0  9991
2 43591  51.6322 152.7081 0004636 332.9317  27.1440 15.74575038 98970
SIRIUSSAT-1             
1 43595U 98067PG  20125.70652985  .00025347  00000-0  19020-3 0  9994
2 43595  51.6318 155.7903 0002088 331.1031  28.9852 15.72437472 98139
SIRIUSSAT-2             
1 43596U 98067PH  20125.57471396  .00025828  00000-0  19462-3 0  9999
2 43596  51.6323 157.2311 0002135 317.3813  42.7019 15.72326978 98107
TANUSHA-3               
1 43597U 98067PJ  20125.55132311  .00057392  00000-0  29698-3 0  9992
2 43597  51.6287 147.1142 0003677   3.2517 356.8508 15.80487099 98238
SURFSAT                 
1 43614U 18070B   20125.51785871  .00002595  00000-0  67187-4 0  9990
2 43614  93.0202 136.4339 0017158 139.0224 221.2324 15.38989440 91724
CP7 (DAVE)              
1 43615U 18070C   20125.67534806  .00002450  00000-0  63693-4 0  9996
2 43615  93.0203 136.4918 0017360 138.1849 222.0735 15.38855645 91743
ELFIN-B                 
1 43616U 18070D   20125.55787078  .00003333  00000-0  83090-4 0  9999
2 43616  93.0167 136.3728 0017764 140.3647 219.8910 15.40107061 91766
ELFIN-A                 
1 43617U 18070E   20125.53121356  .00003596  00000-0  89168-4 0  9992
2 43617  93.0219 136.8373 0017264 137.3229 222.9370 15.40277358 91765
CUBEBEL-1 (BSUSAT-1)    
1 43666U 18083E   20125.87559205  .00001086  00000-0  56351-4 0  9995
2 43666  97.4921 152.7643 0015683 146.1151 338.4462 15.18181534 84008
DEBRISSAT-2             
1 43680U 98067PR  20125.51281060  .00245583  35229-4  56496-3 0  9999
2 43680  51.6278 137.7949 0006594  28.4285 331.7082 15.96775677107085
CICERO 10               
1 43690U 18088A   20125.52205471  .00000863  00000-0  37867-4 0  9995
2 43690  85.0352 107.2684 0017184 108.4137 251.8974 15.20171500 82086
IRVINE01                
1 43693U 18088D   20125.39848870  .00002608  00000-0  10964-3 0  9996
2 43693  85.0322 106.1715 0020502  92.9856 267.3733 15.22692075 82141
PROXIMA I               
1 43694U 18088E   20125.69585283  .00001005  00000-0  42084-4 0  9995
2 43694  85.0295 105.7951 0021693  85.0413 275.3305 15.21901847 82189
PROXIMA II              
1 43696U 18088G   20125.49688789  .00000997  00000-0  41720-4 0  9995
2 43696  85.0296 105.9298 0021738  85.6092 274.7633 15.21903997 82159
FACSAT-1                
1 43721U 18096C   20125.50735575  .00001233  00000-0  49043-4 0  9991
2 43721  97.4223 199.3173 0015927 278.6670  81.2764 15.27113684 79685
CENTAURI-2              
1 43722U 18096D   20125.80981927  .00001510  00000-0  58568-4 0  9999
2 43722  97.4233 199.8528 0015899 277.2692  82.6739 15.27606520 79732
INNOSAT-2               
1 43738U 18096V   20125.84360017  .00001991  00000-0  70544-4 0  9992
2 43738  97.4250 201.6765 0021748 284.9372  74.9460 15.30129604 79869
SIRION PATHFINDER-2     
1 43759U 18099B   20125.81312631  .00000547  00000-0  54887-4 0  9992
2 43759  97.7073 198.2118 0013401 334.8098  25.2467 14.95260374 77402
CORVUS-BC 4             
1 43767U 18099K   20125.47037386  .00000462  00000-0  47785-4 0  9999
2 43767  97.7054 197.3334 0011089 341.3127  18.7684 14.94704884 77334
MOVE-II                 
1 43780U 18099Y   20125.76265035  .00000539  00000-0  54012-4 0  9996
2 43780  97.7081 198.0812 0012948 347.7306  12.3597 14.95362713 77382
SPACEBEE-7              
1 43816U 18099BL  20125.44300120 -.00000029  00000-0  26124-5 0  9995
2 43816  97.7093 198.1315 0012541 332.0523  28.0023 14.95660758 76917
SPACEBEE-5              
1 43817U 18099BM  20125.28000879  .00001479  00000-0  13613-3 0  9992
2 43817  97.7140 198.3487 0011854 332.9627  27.0975 14.96225471 76907
SPACEBEE-6              
1 43818U 18099BN  20125.14432454  .00000948  00000-0  89976-4 0  9992
2 43818  97.7105 197.9554 0012236 332.8140  27.2439 14.95836693 77027
SHIELDS 1               
1 43850U 18104B   20125.72550117  .00000041  00000-0  00000+0 0  9996
2 43850  85.0310 204.2514 0013079 224.6777 135.3507 15.21353071 76827
STF-1                   
1 43852U 18104D   20125.27449753  .00000041  00000-0  00000-0 0  9992
2 43852  85.0328 205.0562 0012172 243.0802 116.9348 15.21203259 76737
ZACUBE-2                
1 43907U 18111AH  20125.80540432  .00000425  00000-0  20047-4 0  9999
2 43907  97.2694  26.8753 0020015 300.4931  59.4330 15.24548424 75365
LUME 1                  
1 43908U 18111AJ  20125.54505338  .00001014  00000-0  43328-4 0  9999
2 43908  97.2694  26.7648 0019782 301.2658  58.6642 15.24963578 75337
AOBA VELOX-IV           
1 43940U 19003J   20122.67935571  .00002295  00000-0  94415-4 0  9998
2 43940  97.2321 175.5541 0024757  33.1416  83.9199 15.24860275 71521
CATSAT-2                
1 44029U 98067PV  20125.56233643  .00012608  00000-0  13622-3 0  9995
2 44029  51.6379 178.3057 0003917 297.0167  63.0427 15.64028894 71653
DELPHINI                
1 44030U 98067PW  20125.41407549  .00016721  00000-0  17319-3 0  9996
2 44030  51.6342 177.9726 0003811 299.4307  60.6307 15.64830232 71611
UNITE                   
1 44031U 98067PX  20125.45434199  .00008915  00000-0  11173-3 0  9990
2 44031  51.6371 183.5482 0002720 286.0024  74.0669 15.60603348 71546
TECHEDSAT 8             
1 44032U 98067PY  20111.15468586  .13178104  12516-4  85387-3 0  9999
2 44032  51.6107 221.1148 0008059 315.3167  44.7209 16.40789031 69743
CATSAT-1                
1 44033U 98067PZ  20125.56219652  .00011595  00000-0  12582-3 0  9992
2 44033  51.6381 178.3105 0003711 296.4380  63.6234 15.64014920 71564
RAAVANA-1               
1 44329U 98067QE  20125.56294858  .00008028  00000-0  11503-3 0  9990
2 44329  51.6388 194.0695 0005172 199.3000 160.7797 15.57159016 50165
UGUISU                  
1 44330U 98067QF  20125.44493765  .00009225  00000-0  13149-3 0  9995
2 44330  51.6386 194.7770 0005212 196.8626 163.2194 15.57088199 50125
NEPALISAT-1             
1 44331U 98067QG  20125.55614040  .00008122  00000-0  11616-3 0  9991
2 44331  51.6390 194.0229 0005238 200.7380 159.3400 15.57189096 50150
SPOOQY-1                
1 44332U 98067QH  20125.49292792  .00008663  00000-0  12382-3 0  9992
2 44332  51.6390 194.3478 0004233 203.5708 156.5090 15.57109055 50105
SPACEBEE-9              
1 44370U 19037F   20125.84366410  .00006926  00000-0  16177-3 0  9998
2 44370  45.0161 359.4750 0013631 288.3943  71.5466 15.42877690 47864
SPACEBEE-8              
1 44371U 19037G   20125.05813420  .00014115  00000-0  28412-3 0  9994
2 44371  45.0173 359.5417 0011156 285.4227  74.5418 15.46515941 47785
IOD-1 GEMS              
1 44385U 98067QK  20125.47603493  .00014286  00000-0  18611-3 0  9991
2 44385  51.6403 193.5292 0001578 141.9608 218.1496 15.59003193 47633
MOVE-IIB                
1 44398U 19038N   20125.74975462  .00001008  00000-0  61792-4 0  9991
2 44398  97.5326  87.5509 0023563 279.1842  80.6723 15.12241359 45972
SONATE                  
1 44400U 19038Q   20125.44332022  .00000509  00000-0  33419-4 0  9991
2 44400  97.5360  87.2667 0023571 278.4017  81.4541 15.11918433 45926
LUCKY-7                 
1 44406U 19038W   20125.53275796  .00000500  00000-0  32663-4 0  9992
2 44406  97.5356  87.4439 0023016 277.8061  82.0557 15.12174516 45934
BEESAT 9                
1 44412U 19038AC  20125.53346485  .00000725  00000-0  45585-4 0  9999
2 44412  97.5348  87.4258 0021135 284.2194  75.6689 15.12237660 45631
JAISAT-1                
1 44419U 19038F   20125.43547933  .00000888  00000-0  54251-4 0  9996
2 44419  97.5349  87.5602 0019964 283.8884  76.0126 15.12720852 45946
SWIATOWID               
1 44426U 98067QL  20125.71975904  .00016781  00000-0  21189-3 0  9999
2 44426  51.6418 191.9653 0002086 140.7345 301.7293 15.59688743 47687
KRAKSAT                 
1 44427U 98067QM  20125.61352117  .00006427  00000-0  99521-4 0  9996
2 44427  51.6429 196.3777 0003570 146.7625   0.3813 15.55424143 47657
VCC A                   
1 44428U 98067QN  20125.47404542  .00009327  00000-0  13547-3 0  9996
2 44428  51.6405 195.7618 0001989 165.1008 195.0042 15.56563097 47650
ENTRYSAT                
1 44429U 98067QP  20125.46927807  .00011568  00000-0  16131-3 0  9992
2 44429  51.6389 194.9609 0001675 151.9037 208.2045 15.57396554 47664
VCC C                   
1 44430U 98067QQ  20125.47295122  .00014147  00000-0  18863-3 0  9993
2 44430  51.6386 194.2458 0001258 170.9534 189.1481 15.58390225 46499
